{
  "type": "FeatureCollection",
  "features": [
    {
      "type": "Feature",
      "properties": {
        "norad_id": 34492,
        "name": "IRIDIUM 33 DEB",
        "group": "iridium-33-debris",
        "lat": 23.74054255610617,
        "lon": -24.391659824698028,
        "alt_km": 922.7751328525001,
        "timestamp": "2025-12-14T03:55:53.172662+00:00",
        "meta_object_name": "IRIDIUM 33 DEB",
        "meta_object_id": "1997-051GH",
        "meta_epoch": "2025-12-12T23:19:24.163680",
        "meta_mean_motion": 14.25737057,
        "meta_eccentricity": 0.01891196,
        "meta_inclination": 86.4723,
        "meta_ra_of_asc_node": 334.5351,
        "meta_arg_of_pericenter": 237.4159,
        "meta_mean_anomaly": 151.0038,
        "meta_ephemeris_type": 0,
        "meta_classification_type": "U",
        "meta_norad_cat_id": 34492,
        "meta_element_set_no": 999,
        "meta_rev_at_epoch": 85062,
        "meta_bstar": 0.0063651158,
        "meta_mean_motion_dot": 0.00018276,
        "meta_mean_motion_ddot": 0,
        "tle_line1": "1 34492U 97051GH  25346.97180745  .00018276  00000+0  63651-2 0  9991",
        "tle_line2": "2 34492  86.4723 334.5351 0189119 237.4159 151.0038 14.25737057850628"
      },
      "geometry": {
        "type": "Point",
        "coordinates": [
          -24.391659824698028,
          23.74054255610617
        ]
      }
    },
    {
      "type": "Feature",
      "properties": {
        "norad_id": 34497,
        "name": "IRIDIUM 33 DEB",
        "group": "iridium-33-debris",
        "lat": -86.15965523857268,
        "lon": -52.33680901019699,
        "alt_km": 784.2269349145254,
        "timestamp": "2025-12-14T03:55:53.172672+00:00",
        "meta_object_name": "IRIDIUM 33 DEB",
        "meta_object_id": "1997-051GN",
        "meta_epoch": "2025-12-13T05:03:26.883648",
        "meta_mean_motion": 14.27456256,
        "meta_eccentricity": 0.00787638,
        "meta_inclination": 86.2779,
        "meta_ra_of_asc_node": 52.2004,
        "meta_arg_of_pericenter": 338.0287,
        "meta_mean_anomaly": 77.1802,
        "meta_ephemeris_type": 0,
        "meta_classification_type": "U",
        "meta_norad_cat_id": 34497,
        "meta_element_set_no": 999,
        "meta_rev_at_epoch": 86890,
        "meta_bstar": 0.00091393748,
        "meta_mean_motion_dot": 2.335e-05,
        "meta_mean_motion_ddot": 0,
        "tle_line1": "1 34497U 97051GN  25347.21072782  .00002335  00000+0  91394-3 0  9990",
        "tle_line2": "2 34497  86.2779  52.2004 0078763 338.0287  77.1802 14.27456256868901"
      },
      "geometry": {
        "type": "Point",
        "coordinates": [
          -52.33680901019699,
          -86.15965523857268
        ]
      }
    },
    {
      "type": "Feature",
      "properties": {
        "norad_id": 34508,
        "name": "IRIDIUM 33 DEB",
        "group": "iridium-33-debris",
        "lat": 56.167206438751386,
        "lon": -83.39624868706252,
        "alt_km": 724.6719656205769,
        "timestamp": "2025-12-14T03:55:53.172683+00:00",
        "meta_object_name": "IRIDIUM 33 DEB",
        "meta_object_id": "1997-051GZ",
        "meta_epoch": "2025-12-12T17:57:57.853728",
        "meta_mean_motion": 14.3842932,
        "meta_eccentricity": 0.00660592,
        "meta_inclination": 86.3696,
        "meta_ra_of_asc_node": 102.6391,
        "meta_arg_of_pericenter": 172.9661,
        "meta_mean_anomaly": 187.2481,
        "meta_ephemeris_type": 0,
        "meta_classification_type": "U",
        "meta_norad_cat_id": 34508,
        "meta_element_set_no": 999,
        "meta_rev_at_epoch": 87309,
        "meta_bstar": 0.002129503,
        "meta_mean_motion_dot": 6.683e-05,
        "meta_mean_motion_ddot": 0,
        "tle_line1": "1 34508U 97051GZ  25346.74858627  .00006683  00000+0  21295-2 0  9992",
        "tle_line2": "2 34508  86.3696 102.6391 0066059 172.9661 187.2481 14.38429320873094"
      },
      "geometry": {
        "type": "Point",
        "coordinates": [
          -83.39624868706252,
          56.167206438751386
        ]
      }
    },
    {
      "type": "Feature",
      "properties": {
        "norad_id": 34521,
        "name": "IRIDIUM 33 DEB",
        "group": "iridium-33-debris",
        "lat": 69.21270481723408,
        "lon": 39.520005946456855,
        "alt_km": 676.4840173955481,
        "timestamp": "2025-12-14T03:55:53.172693+00:00",
        "meta_object_name": "IRIDIUM 33 DEB",
        "meta_object_id": "1997-051HN",
        "meta_epoch": "2025-12-13T04:38:21.799968",
        "meta_mean_motion": 14.63375371,
        "meta_eccentricity": 0.00015966,
        "meta_inclination": 86.3805,
        "meta_ra_of_asc_node": 30.3484,
        "meta_arg_of_pericenter": 211.9886,
        "meta_mean_anomaly": 148.123,
        "meta_ephemeris_type": 0,
        "meta_classification_type": "U",
        "meta_norad_cat_id": 34521,
        "meta_element_set_no": 999,
        "meta_rev_at_epoch": 88479,
        "meta_bstar": 0.001295345,
        "meta_mean_motion_dot": 6.715e-05,
        "meta_mean_motion_ddot": 0,
        "tle_line1": "1 34521U 97051HN  25347.19330787  .00006715  00000+0  12953-2 0  9996",
        "tle_line2": "2 34521  86.3805  30.3484 0001596 211.9886 148.1230 14.63375371884790"
      },
      "geometry": {
        "type": "Point",
        "coordinates": [
          39.520005946456855,
          69.21270481723408
        ]
      }
    },
    {
      "type": "Feature",
      "properties": {
        "norad_id": 34525,
        "name": "IRIDIUM 33 DEB",
        "group": "iridium-33-debris",
        "lat": 35.95065831833707,
        "lon": -136.40051852813764,
        "alt_km": 743.637349372013,
        "timestamp": "2025-12-14T03:55:53.172704+00:00",
        "meta_object_name": "IRIDIUM 33 DEB",
        "meta_object_id": "1997-051HS",
        "meta_epoch": "2025-12-13T04:05:45.430944",
        "meta_mean_motion": 14.42907914,
        "meta_eccentricity": 0.00066513,
        "meta_inclination": 86.373,
        "meta_ra_of_asc_node": 46.6598,
        "meta_arg_of_pericenter": 94.3043,
        "meta_mean_anomaly": 293.9276,
        "meta_ephemeris_type": 0,
        "meta_classification_type": "U",
        "meta_norad_cat_id": 34525,
        "meta_element_set_no": 999,
        "meta_rev_at_epoch": 88094,
        "meta_bstar": 0.00056401986,
        "meta_mean_motion_dot": 1.904e-05,
        "meta_mean_motion_ddot": 0,
        "tle_line1": "1 34525U 97051HS  25347.17066471  .00001904  00000+0  56402-3 0  9997",
        "tle_line2": "2 34525  86.3730  46.6598 0006651  94.3043 293.9276 14.42907914880945"
      },
      "geometry": {
        "type": "Point",
        "coordinates": [
          -136.40051852813764,
          35.95065831833707
        ]
      }
    },
    {
      "type": "Feature",
      "properties": {
        "norad_id": 34529,
        "name": "IRIDIUM 33 DEB",
        "group": "iridium-33-debris",
        "lat": 26.690116661744895,
        "lon": 36.6368486075277,
        "alt_km": 758.3910693865755,
        "timestamp": "2025-12-14T03:55:53.172714+00:00",
        "meta_object_name": "IRIDIUM 33 DEB",
        "meta_object_id": "1997-051HW",
        "meta_epoch": "2025-12-13T04:28:09.694848",
        "meta_mean_motion": 14.40616367,
        "meta_eccentricity": 0.00048664,
        "meta_inclination": 86.3641,
        "meta_ra_of_asc_node": 35.2216,
        "meta_arg_of_pericenter": 175.3623,
        "meta_mean_anomaly": 184.7623,
        "meta_ephemeris_type": 0,
        "meta_classification_type": "U",
        "meta_norad_cat_id": 34529,
        "meta_element_set_no": 999,
        "meta_rev_at_epoch": 88148,
        "meta_bstar": 0.00016827646,
        "meta_mean_motion_dot": 5.56e-06,
        "meta_mean_motion_ddot": 0,
        "tle_line1": "1 34529U 97051HW  25347.18622332  .00000556  00000+0  16828-3 0  9996",
        "tle_line2": "2 34529  86.3641  35.2216 0004866 175.3623 184.7623 14.40616367881481"
      },
      "geometry": {
        "type": "Point",
        "coordinates": [
          36.6368486075277,
          26.690116661744895
        ]
      }
    },
    {
      "type": "Feature",
      "properties": {
        "norad_id": 34538,
        "name": "IRIDIUM 33 DEB",
        "group": "iridium-33-debris",
        "lat": -53.931978795772686,
        "lon": -169.939082096546,
        "alt_km": 756.4586823642758,
        "timestamp": "2025-12-14T03:55:53.172725+00:00",
        "meta_object_name": "IRIDIUM 33 DEB",
        "meta_object_id": "1997-051JF",
        "meta_epoch": "2025-12-12T19:29:58.055136",
        "meta_mean_motion": 14.42648871,
        "meta_eccentricity": 0.0032777,
        "meta_inclination": 86.2773,
        "meta_ra_of_asc_node": 5.524,
        "meta_arg_of_pericenter": 327.8022,
        "meta_mean_anomaly": 92.8362,
        "meta_ephemeris_type": 0,
        "meta_classification_type": "U",
        "meta_norad_cat_id": 34538,
        "meta_element_set_no": 999,
        "meta_rev_at_epoch": 87757,
        "meta_bstar": 0.0014020322,
        "meta_mean_motion_dot": 4.708e-05,
        "meta_mean_motion_ddot": 0,
        "tle_line1": "1 34538U 97051JF  25346.81247749  .00004708  00000+0  14020-2 0  9994",
        "tle_line2": "2 34538  86.2773   5.5240 0032777 327.8022  92.8362 14.42648871877573"
      },
      "geometry": {
        "type": "Point",
        "coordinates": [
          -169.939082096546,
          -53.931978795772686
        ]
      }
    }
  ]
}